{
  "norad_id": 53219,
  "name": "STARLINK-4373",
  "history": [
    {
      "epoch": "2026-03-28T16:56:04.678080Z",
      "apogee_km": 550.8179685505384,
      "perigee_km": 547.9749088273011,
      "latitude_deg": -1.5996708097303358e-05,
      "longitude_deg": 69.79989361717081,
      "height_km": 553.1632745507753,
      "semi_major_axis_km": 6927.53343868892,
      "eccentricity": 0.0002052,
      "inclination_deg": 97.6041,
      "raan_deg": 149.9416,
      "arg_perigee_deg": 119.7029,
      "mean_anomaly_deg": 240.4402,
      "mean_motion_rev_day": 15.05687399
    },
    {
      "epoch": "2026-03-29T04:05:59.443296Z",
      "apogee_km": 550.8292577987522,
      "perigee_km": 548.2618586426743,
      "latitude_deg": -3.172557459977997e-05,
      "longitude_deg": -97.67833170875217,
      "height_km": 553.2751167488611,
      "semi_major_axis_km": 6927.682558220713,
      "eccentricity": 0.0001853,
      "inclination_deg": 97.6042,
      "raan_deg": 150.4001,
      "arg_perigee_deg": 121.2959,
      "mean_anomaly_deg": 238.8449,
      "mean_motion_rev_day": 15.05638784
    },
    {
      "epoch": "2026-03-30T02:25:46.980480Z",
      "apogee_km": 550.8067975559088,
      "perigee_km": 548.2236146013065,
      "latitude_deg": -6.391933366174978e-06,
      "longitude_deg": -72.62586136799202,
      "height_km": 553.2112858698081,
      "semi_major_axis_km": 6927.652206078607,
      "eccentricity": 0.00018644,
      "inclination_deg": 97.6037,
      "raan_deg": 151.3177,
      "arg_perigee_deg": 119.3672,
      "mean_anomaly_deg": 240.7741,
      "mean_motion_rev_day": 15.05648679
    },
    {
      "epoch": "2026-03-30T10:24:17.396352Z",
      "apogee_km": 550.8137349960261,
      "perigee_km": 548.2421857627332,
      "latitude_deg": -6.499092116887576e-05,
      "longitude_deg": 167.74738763946576,
      "height_km": 553.2055252314265,
      "semi_major_axis_km": 6927.664960379379,
      "eccentricity": 0.0001856,
      "inclination_deg": 97.6036,
      "raan_deg": 151.6452,
      "arg_perigee_deg": 118.5698,
      "mean_anomaly_deg": 241.5715,
      "mean_motion_rev_day": 15.05644521
    }
  ]
}